sat19025
1 19025U 81053MC  20046.89676460  .00000662  00000-0  34573-3 0  9991
2 19025  82.7117 222.3844 0030212 222.3891 137.4952 14.12924207775186
